[{"CCSDS_OMM_VERS":"2.0","COMMENT":"GENERATED VIA SPACE-TRACK.ORG API","CREATION_DATE":"2018-04-08T07:24:56","ORIGINATOR":"18 SPCS","OBJECT_NAME":"UPSAT","OBJECT_ID":"1998-067LX","CENTER_NAME":"EARTH","REF_FRAME":"TEME","TIME_SYSTEM":"UTC","MEAN_ELEMENT_THEORY":"SGP4","EPOCH":"2018-04-08T02:42:35.624448","MEAN_MOTION":"15.70301623","ECCENTRICITY":"0.00012240","INCLINATION":"51.6360","RA_OF_ASC_NODE":"350.0087","ARG_OF_PERICENTER":"9.5392","MEAN_ANOMALY":"350.5628","EPHEMERIS_TYPE":"0","CLASSIFICATION_TYPE":"U","NORAD_CAT_ID":"42716","ELEMENT_SET_NO":"999","REV_AT_EPOCH":"5074","BSTAR":"0.00024876000000","MEAN_MOTION_DOT":"0.00030455","MEAN_MOTION_DDOT":"0.0000000000000","SEMIMAJOR_AXIS":"6736.171","PERIOD":"91.702","APOAPSIS":"358.860","PERIAPSIS":"357.211","OBJECT_TYPE":"PAYLOAD","RCS_SIZE":"SMALL","COUNTRY_CODE":"GREC","LAUNCH_DATE":"1998-11-20","SITE":"TTMTR","DECAY_DATE":null,"FILE":"2268234","GP_ID":"119209842","TLE_LINE0":"0 UPSAT","TLE_LINE1":"1 42716U 98067LX  18098.11291232  .00030455  00000-0  24876-3 0  9994","TLE_LINE2":"2 42716  51.6360 350.0087 0001224   9.5392 350.5628 15.70301623 50746"},{"CCSDS_OMM_VERS":"2.0","COMMENT":"GENERATED VIA SPACE-TRACK.ORG API","CREATION_DATE":"2018-04-09T05:46:57","ORIGINATOR":"18 SPCS","OBJECT_NAME":"UPSAT","OBJECT_ID":"1998-067LX","CENTER_NAME":"EARTH","REF_FRAME":"TEME","TIME_SYSTEM":"UTC","MEAN_ELEMENT_THEORY":"SGP4","EPOCH":"2018-04-08T22:33:54.061920","MEAN_MOTION":"15.70351602","ECCENTRICITY":"0.00012070","INCLINATION":"51.6360","RA_OF_ASC_NODE":"345.7834","ARG_OF_PERICENTER":"9.9281","MEAN_ANOMALY":"350.1740","EPHEMERIS_TYPE":"0","CLASSIFICATION_TYPE":"U","NORAD_CAT_ID":"42716","ELEMENT_SET_NO":"999","REV_AT_EPOCH":"5087","BSTAR":"0.00024901000000","MEAN_MOTION_DOT":"0.00030551","MEAN_MOTION_DDOT":"0.0000000000000","SEMIMAJOR_AXIS":"6736.028","PERIOD":"91.699","APOAPSIS":"358.706","PERIAPSIS":"357.080","OBJECT_TYPE":"PAYLOAD","RCS_SIZE":"SMALL","COUNTRY_CODE":"GREC","LAUNCH_DATE":"1998-11-20","SITE":"TTMTR","DECAY_DATE":null,"FILE":"2268586","GP_ID":"119232547","TLE_LINE0":"0 UPSAT","TLE_LINE1":"1 42716U 98067LX  18098.94020905 +.00030551 +00000-0 +24901-3 0  9998","TLE_LINE2":"2 42716 051.6360 345.7834 0001207 009.9281 350.1740 15.70351602050876"},{"CCSDS_OMM_VERS":"2.0","COMMENT":"GENERATED VIA SPACE-TRACK.ORG API","CREATION_DATE":"2018-04-09T07:23:32","ORIGINATOR":"18 SPCS","OBJECT_NAME":"UPSAT","OBJECT_ID":"1998-067LX","CENTER_NAME":"EARTH","REF_FRAME":"TEME","TIME_SYSTEM":"UTC","MEAN_ELEMENT_THEORY":"SGP4","EPOCH":"2018-04-09T03:08:48.786144","MEAN_MOTION":"15.70362599","ECCENTRICITY":"0.00012270","INCLINATION":"51.6360","RA_OF_ASC_NODE":"344.8084","ARG_OF_PERICENTER":"9.2692","MEAN_ANOMALY":"350.8328","EPHEMERIS_TYPE":"0","CLASSIFICATION_TYPE":"U","NORAD_CAT_ID":"42716","ELEMENT_SET_NO":"999","REV_AT_EPOCH":"5090","BSTAR":"0.00024663000000","MEAN_MOTION_DOT":"0.00030266","MEAN_MOTION_DDOT":"0.0000000000000","SEMIMAJOR_AXIS":"6735.996","PERIOD":"91.698","APOAPSIS":"358.688","PERIAPSIS":"357.035","OBJECT_TYPE":"PAYLOAD","RCS_SIZE":"SMALL","COUNTRY_CODE":"GREC","LAUNCH_DATE":"1998-11-20","SITE":"TTMTR","DECAY_DATE":null,"FILE":"2268618","GP_ID":"119234206","TLE_LINE0":"0 UPSAT","TLE_LINE1":"1 42716U 98067LX  18099.13112021  .00030266  00000-0  24663-3 0  9999","TLE_LINE2":"2 42716  51.6360 344.8084 0001227   9.2692 350.8328 15.70362599 50904"},{"CCSDS_OMM_VERS":"2.0","COMMENT":"GENERATED VIA SPACE-TRACK.ORG API","CREATION_DATE":"2018-04-09T23:00:48","ORIGINATOR":"18 SPCS","OBJECT_NAME":"UPSAT","OBJECT_ID":"1998-067LX","CENTER_NAME":"EARTH","REF_FRAME":"TEME","TIME_SYSTEM":"UTC","MEAN_ELEMENT_THEORY":"SGP4","EPOCH":"2018-04-09T16:53:32.126784","MEAN_MOTION":"15.70401465","ECCENTRICITY":"0.00011760","INCLINATION":"51.6361","RA_OF_ASC_NODE":"341.8826","ARG_OF_PERICENTER":"10.9604","MEAN_ANOMALY":"349.1419","EPHEMERIS_TYPE":"0","CLASSIFICATION_TYPE":"U","NORAD_CAT_ID":"42716","ELEMENT_SET_NO":"999","REV_AT_EPOCH":"5099","BSTAR":"0.00027112000000","MEAN_MOTION_DOT":"0.00033399","MEAN_MOTION_DDOT":"0.0000000000000","SEMIMAJOR_AXIS":"6735.885","PERIOD":"91.696","APOAPSIS":"358.542","PERIAPSIS":"356.958","OBJECT_TYPE":"PAYLOAD","RCS_SIZE":"SMALL","COUNTRY_CODE":"GREC","LAUNCH_DATE":"1998-11-20","SITE":"TTMTR","DECAY_DATE":null,"FILE":"2268909","GP_ID":"119248888","TLE_LINE0":"0 UPSAT","TLE_LINE1":"1 42716U 98067LX  18099.70384406  .00033399  00000-0  27112-3 0  9992","TLE_LINE2":"2 42716  51.6361 341.8826 0001176  10.9604 349.1419 15.70401465 50998"},{"CCSDS_OMM_VERS":"2.0","COMMENT":"GENERATED VIA SPACE-TRACK.ORG API","CREATION_DATE":"2018-04-10T05:51:34","ORIGINATOR":"18 SPCS","OBJECT_NAME":"UPSAT","OBJECT_ID":"1998-067LX","CENTER_NAME":"EARTH","REF_FRAME":"TEME","TIME_SYSTEM":"UTC","MEAN_ELEMENT_THEORY":"SGP4","EPOCH":"2018-04-09T21:28:26.307552","MEAN_MOTION":"15.70413774","ECCENTRICITY":"0.00012070","INCLINATION":"51.6361","RA_OF_ASC_NODE":"340.9078","ARG_OF_PERICENTER":"10.7216","MEAN_ANOMALY":"349.3807","EPHEMERIS_TYPE":"0","CLASSIFICATION_TYPE":"U","NORAD_CAT_ID":"42716","ELEMENT_SET_NO":"999","REV_AT_EPOCH":"5102","BSTAR":"0.00027512000000","MEAN_MOTION_DOT":"0.00033920","MEAN_MOTION_DDOT":"0.0000000000000","SEMIMAJOR_AXIS":"6735.850","PERIOD":"91.695","APOAPSIS":"358.528","PERIAPSIS":"356.902","OBJECT_TYPE":"PAYLOAD","RCS_SIZE":"SMALL","COUNTRY_CODE":"GREC","LAUNCH_DATE":"1998-11-20","SITE":"TTMTR","DECAY_DATE":null,"FILE":"2268963","GP_ID":"119256683","TLE_LINE0":"0 UPSAT","TLE_LINE1":"1 42716U 98067LX  18099.89474893 +.00033920 +00000-0 +27512-3 0  9996","TLE_LINE2":"2 42716 051.6361 340.9078 0001207 010.7216 349.3807 15.70413774051023"},{"CCSDS_OMM_VERS":"2.0","COMMENT":"GENERATED VIA SPACE-TRACK.ORG API","CREATION_DATE":"2018-04-10T07:28:43","ORIGINATOR":"18 SPCS","OBJECT_NAME":"UPSAT","OBJECT_ID":"1998-067LX","CENTER_NAME":"EARTH","REF_FRAME":"TEME","TIME_SYSTEM":"UTC","MEAN_ELEMENT_THEORY":"SGP4","EPOCH":"2018-04-10T05:06:36.160992","MEAN_MOTION":"15.70446416","ECCENTRICITY":"0.00011790","INCLINATION":"51.6359","RA_OF_ASC_NODE":"339.2818","ARG_OF_PERICENTER":"11.3297","MEAN_ANOMALY":"348.7727","EPHEMERIS_TYPE":"0","CLASSIFICATION_TYPE":"U","NORAD_CAT_ID":"42716","ELEMENT_SET_NO":"999","REV_AT_EPOCH":"5107","BSTAR":"0.00034822000000","MEAN_MOTION_DOT":"0.00043199","MEAN_MOTION_DDOT":"0.0000000000000","SEMIMAJOR_AXIS":"6735.757","PERIOD":"91.693","APOAPSIS":"358.416","PERIAPSIS":"356.828","OBJECT_TYPE":"PAYLOAD","RCS_SIZE":"SMALL","COUNTRY_CODE":"GREC","LAUNCH_DATE":"1998-11-20","SITE":"TTMTR","DECAY_DATE":null,"FILE":"2269050","GP_ID":"119259463","TLE_LINE0":"0 UPSAT","TLE_LINE1":"1 42716U 98067LX  18100.21291853  .00043199  00000-0  34822-3 0  9999","TLE_LINE2":"2 42716  51.6359 339.2818 0001179  11.3297 348.7727 15.70446416 51075"},{"CCSDS_OMM_VERS":"2.0","COMMENT":"GENERATED VIA SPACE-TRACK.ORG API","CREATION_DATE":"2018-04-10T23:10:37","ORIGINATOR":"18 SPCS","OBJECT_NAME":"UPSAT","OBJECT_ID":"1998-067LX","CENTER_NAME":"EARTH","REF_FRAME":"TEME","TIME_SYSTEM":"UTC","MEAN_ELEMENT_THEORY":"SGP4","EPOCH":"2018-04-10T18:51:16.597728","MEAN_MOTION":"15.70500256","ECCENTRICITY":"0.00011820","INCLINATION":"51.6360","RA_OF_ASC_NODE":"336.3561","ARG_OF_PERICENTER":"11.1450","MEAN_ANOMALY":"348.9574","EPHEMERIS_TYPE":"0","CLASSIFICATION_TYPE":"U","NORAD_CAT_ID":"42716","ELEMENT_SET_NO":"999","REV_AT_EPOCH":"5116","BSTAR":"0.00036738000000","MEAN_MOTION_DOT":"0.00045727","MEAN_MOTION_DDOT":"0.0000000000000","SEMIMAJOR_AXIS":"6735.603","PERIOD":"91.690","APOAPSIS":"358.264","PERIAPSIS":"356.672","OBJECT_TYPE":"PAYLOAD","RCS_SIZE":"SMALL","COUNTRY_CODE":"GREC","LAUNCH_DATE":"1998-11-20","SITE":"TTMTR","DECAY_DATE":null,"FILE":"2269391","GP_ID":"119275600","TLE_LINE0":"0 UPSAT","TLE_LINE1":"1 42716U 98067LX  18100.78560877  .00045727  00000-0  36738-3 0  9993","TLE_LINE2":"2 42716  51.6360 336.3561 0001182  11.1450 348.9574 15.70500256 51168"},{"CCSDS_OMM_VERS":"2.0","COMMENT":"GENERATED VIA SPACE-TRACK.ORG API","CREATION_DATE":"2018-04-11T05:51:48","ORIGINATOR":"18 SPCS","OBJECT_NAME":"UPSAT","OBJECT_ID":"1998-067LX","CENTER_NAME":"EARTH","REF_FRAME":"TEME","TIME_SYSTEM":"UTC","MEAN_ELEMENT_THEORY":"SGP4","EPOCH":"2018-04-10T21:54:31.982688","MEAN_MOTION":"15.70515216","ECCENTRICITY":"0.00011980","INCLINATION":"51.6359","RA_OF_ASC_NODE":"335.7061","ARG_OF_PERICENTER":"11.1539","MEAN_ANOMALY":"348.9485","EPHEMERIS_TYPE":"0","CLASSIFICATION_TYPE":"U","NORAD_CAT_ID":"42716","ELEMENT_SET_NO":"999","REV_AT_EPOCH":"5118","BSTAR":"0.00038967000000","MEAN_MOTION_DOT":"0.00048585","MEAN_MOTION_DDOT":"0.0000000000000","SEMIMAJOR_AXIS":"6735.560","PERIOD":"91.689","APOAPSIS":"358.232","PERIAPSIS":"356.618","OBJECT_TYPE":"PAYLOAD","RCS_SIZE":"SMALL","COUNTRY_CODE":"GREC","LAUNCH_DATE":"1998-11-20","SITE":"TTMTR","DECAY_DATE":null,"FILE":"2269441","GP_ID":"119283876","TLE_LINE0":"0 UPSAT","TLE_LINE1":"1 42716U 98067LX  18100.91287017 +.00048585 +00000-0 +38967-3 0  9991","TLE_LINE2":"2 42716 051.6359 335.7061 0001198 011.1539 348.9485 15.70515216051184"}]